STARLINK-35733          
1 66224U 25244U   25322.83335647 -.00102457  00000+0 -18559-2 0  9990
2 66224  53.1606  28.7415 0001442  77.2313 214.8778 15.49345743  4369
STARLINK-35734          
1 66225U 25244V   25322.83335647 -.00123644  00000+0 -22469-2 0  9997
2 66225  53.1605  28.7444 0001072  88.5322 201.6653 15.49352855  4363
STARLINK-34466          
1 66226U 25244W   25322.83335647 -.00106836  00000+0 -19364-2 0  9992
2 66226  53.1605  28.7364 0001135  71.2974 222.7210 15.49349987  4687
STARLINK-34882          
1 66227U 25244X   25322.83335647 -.00113484  00000+0 -20589-2 0  9991
2 66227  53.1605  28.7316 0001240  72.7994 223.1353 15.49353217  4684
STARLINK-35731          
1 66228U 25244Y   25322.83335647 -.00098014  00000+0 -17741-2 0  9999
2 66228  53.1606  28.7281 0001234  68.1721 229.6808 15.49345880  4376
STARLINK-35758          
1 66229U 25244Z   25322.83335647 -.00107731  00000+0 -19528-2 0  9992
2 66229  53.1605  28.7245 0001259  70.7597 229.0086 15.49350916  4371
STARLINK-35736          
1 66230U 25244AA  25322.83335647 -.00107887  00000+0 -19559-2 0  9990
2 66230  53.1605  28.7204 0001118  73.7610 227.9276 15.49348703  4370
STARLINK-35735          
1 66231U 25244AB  25322.83335647 -.00103925  00000+0 -18828-2 0  9998
2 66231  53.1605  28.7166 0001178  73.4802 230.1240 15.49347870  4375
STARLINK-35753          
1 66232U 25244AC  25322.83335647 -.00100657  00000+0 -18228-2 0  9992
2 66232  53.1605  28.7132 0001322  81.4160 224.1093 15.49344217  4377
STARLINK-35626          
1 66233U 25244AD  25322.83335647 -.00091066  00000+0 -16465-2 0  9997
2 66233  53.1606  28.7090 0001450  81.6975 225.7426 15.49341344  4533
STARLINK-35537          
1 66234U 25245A   25322.83335647 -.01987105  00000+0 -29433-1 0  9996
2 66234  53.1600  82.6556 0001149  69.8898 153.9597 15.58198815  4265
STARLINK-35541          
1 66235U 25245B   25322.83335647 -.01989422  00000+0 -29471-1 0  9993
2 66235  53.1598  82.6511 0001131  70.5245 155.2407 15.58200666  4217
